[{"OBJECT_NAME":"ONEWEB-0411","OBJECT_ID":"2022-012B","EPOCH":"2025-07-28T15:20:08.156256","MEAN_MOTION":13.10369995,"ECCENTRICITY":0.0001794,"INCLINATION":87.8802,"RA_OF_ASC_NODE":100.8002,"ARG_OF_PERICENTER":57.8088,"MEAN_ANOMALY":302.3213,"EPHEMERIS_TYPE":0,"CLASSIFICATION_TYPE":"U","NORAD_CAT_ID":51623,"ELEMENT_SET_NO":999,"REV_AT_EPOCH":16691,"BSTAR":-0.0011834,"MEAN_MOTION_DOT":-4.0e-6,"MEAN_MOTION_DDOT":0},{"OBJECT_NAME":"ONEWEB-0415","OBJECT_ID":"2022-012C","EPOCH":"2025-07-28T15:15:21.430080","MEAN_MOTION":13.10369681,"ECCENTRICITY":0.000175,"INCLINATION":87.88,"RA_OF_ASC_NODE":100.8041,"ARG_OF_PERICENTER":66.9618,"MEAN_ANOMALY":293.1694,"EPHEMERIS_TYPE":0,"CLASSIFICATION_TYPE":"U","NORAD_CAT_ID":51624,"ELEMENT_SET_NO":999,"REV_AT_EPOCH":16691,"BSTAR":-0.00084048,"MEAN_MOTION_DOT":-2.81e-6,"MEAN_MOTION_DDOT":0},{"OBJECT_NAME":"ONEWEB-0416","OBJECT_ID":"2022-012D","EPOCH":"2025-07-28T17:22:02.086464","MEAN_MOTION":13.10372197,"ECCENTRICITY":0.000175,"INCLINATION":87.8805,"RA_OF_ASC_NODE":100.8051,"ARG_OF_PERICENTER":76.566,"MEAN_ANOMALY":283.5663,"EPHEMERIS_TYPE":0,"CLASSIFICATION_TYPE":"U","NORAD_CAT_ID":51625,"ELEMENT_SET_NO":999,"REV_AT_EPOCH":16825,"BSTAR":-0.0018625,"MEAN_MOTION_DOT":-6.37e-6,"MEAN_MOTION_DDOT":0},{"OBJECT_NAME":"ONEWEB-0422","OBJECT_ID":"2022-012E","EPOCH":"2025-07-28T21:23:18.492864","MEAN_MOTION":13.17650373,"ECCENTRICITY":0.0002498,"INCLINATION":87.9041,"RA_OF_ASC_NODE":70.1938,"ARG_OF_PERICENTER":77.6423,"MEAN_ANOMALY":282.4988,"EPHEMERIS_TYPE":0,"CLASSIFICATION_TYPE":"U","NORAD_CAT_ID":51626,"ELEMENT_SET_NO":999,"REV_AT_EPOCH":17251,"BSTAR":5.0772e-5,"MEAN_MOTION_DOT":3.3e-7,"MEAN_MOTION_DDOT":0},{"OBJECT_NAME":"ONEWEB-0423","OBJECT_ID":"2022-012F","EPOCH":"2025-07-28T21:13:35.368032","MEAN_MOTION":13.17649936,"ECCENTRICITY":0.000184,"INCLINATION":87.9043,"RA_OF_ASC_NODE":70.2033,"ARG_OF_PERICENTER":84.3843,"MEAN_ANOMALY":275.7498,"EPHEMERIS_TYPE":0,"CLASSIFICATION_TYPE":"U","NORAD_CAT_ID":51627,"ELEMENT_SET_NO":999,"REV_AT_EPOCH":17241,"BSTAR":-9.4331e-6,"MEAN_MOTION_DOT":9.0e-8,"MEAN_MOTION_DDOT":0},{"OBJECT_NAME":"ONEWEB-0425","OBJECT_ID":"2022-012G","EPOCH":"2025-07-28T17:36:22.739328","MEAN_MOTION":13.10375207,"ECCENTRICITY":0.0001722,"INCLINATION":87.8807,"RA_OF_ASC_NODE":100.7727,"ARG_OF_PERICENTER":87.1887,"MEAN_ANOMALY":272.9438,"EPHEMERIS_TYPE":0,"CLASSIFICATION_TYPE":"U","NORAD_CAT_ID":51628,"ELEMENT_SET_NO":999,"REV_AT_EPOCH":16825,"BSTAR":-0.0015712,"MEAN_MOTION_DOT":-5.36e-6,"MEAN_MOTION_DDOT":0},{"OBJECT_NAME":"ONEWEB-0428","OBJECT_ID":"2022-012H","EPOCH":"2025-07-28T15:17:44.874816","MEAN_MOTION":13.10370302,"ECCENTRICITY":0.0001977,"INCLINATION":87.8801,"RA_OF_ASC_NODE":100.8137,"ARG_OF_PERICENTER":73.7002,"MEAN_ANOMALY":286.4342,"EPHEMERIS_TYPE":0,"CLASSIFICATION_TYPE":"U","NORAD_CAT_ID":51629,"ELEMENT_SET_NO":999,"REV_AT_EPOCH":16691,"BSTAR":-0.00090806,"MEAN_MOTION_DOT":-3.04e-6,"MEAN_MOTION_DDOT":0},{"OBJECT_NAME":"ONEWEB-0431","OBJECT_ID":"2022-012J","EPOCH":"2025-07-28T14:34:32.666592","MEAN_MOTION":13.10375159,"ECCENTRICITY":0.0002099,"INCLINATION":87.8802,"RA_OF_ASC_NODE":100.7896,"ARG_OF_PERICENTER":61.7517,"MEAN_ANOMALY":298.3822,"EPHEMERIS_TYPE":0,"CLASSIFICATION_TYPE":"U","NORAD_CAT_ID":51630,"ELEMENT_SET_NO":999,"REV_AT_EPOCH":16696,"BSTAR":0.001961,"MEAN_MOTION_DOT":6.97e-6,"MEAN_MOTION_DDOT":0},{"OBJECT_NAME":"ONEWEB-0434","OBJECT_ID":"2022-012K","EPOCH":"2025-07-28T12:11:17.750112","MEAN_MOTION":13.10375413,"ECCENTRICITY":0.0001724,"INCLINATION":87.8811,"RA_OF_ASC_NODE":100.8524,"ARG_OF_PERICENTER":97.7662,"MEAN_ANOMALY":262.3661,"EPHEMERIS_TYPE":0,"CLASSIFICATION_TYPE":"U","NORAD_CAT_ID":51631,"ELEMENT_SET_NO":999,"REV_AT_EPOCH":16693,"BSTAR":-0.0012957,"MEAN_MOTION_DOT":-4.4e-6,"MEAN_MOTION_DDOT":0},{"OBJECT_NAME":"ONEWEB-0435","OBJECT_ID":"2022-012L","EPOCH":"2025-07-28T16:03:09.962784","MEAN_MOTION":13.10376831,"ECCENTRICITY":0.0002245,"INCLINATION":87.8808,"RA_OF_ASC_NODE":100.813,"ARG_OF_PERICENTER":74.4169,"MEAN_ANOMALY":285.7206,"EPHEMERIS_TYPE":0,"CLASSIFICATION_TYPE":"U","NORAD_CAT_ID":51632,"ELEMENT_SET_NO":999,"REV_AT_EPOCH":16822,"BSTAR":0.00012899,"MEAN_MOTION_DOT":5.8e-7,"MEAN_MOTION_DDOT":0},{"OBJECT_NAME":"ONEWEB-0436","OBJECT_ID":"2022-012M","EPOCH":"2025-07-28T13:44:02.212512","MEAN_MOTION":13.17648699,"ECCENTRICITY":0.0001955,"INCLINATION":87.9031,"RA_OF_ASC_NODE":70.2513,"ARG_OF_PERICENTER":77.9169,"MEAN_ANOMALY":282.2182,"EPHEMERIS_TYPE":0,"CLASSIFICATION_TYPE":"U","NORAD_CAT_ID":51633,"ELEMENT_SET_NO":999,"REV_AT_EPOCH":17106,"BSTAR":-0.00066888,"MEAN_MOTION_DOT":-2.47e-6,"MEAN_MOTION_DDOT":0},{"OBJECT_NAME":"ONEWEB-0438","OBJECT_ID":"2022-012N","EPOCH":"2025-07-28T11:59:20.418432","MEAN_MOTION":13.10373608,"ECCENTRICITY":0.0001748,"INCLINATION":87.8807,"RA_OF_ASC_NODE":100.8476,"ARG_OF_PERICENTER":82.1977,"MEAN_ANOMALY":277.9349,"EPHEMERIS_TYPE":0,"CLASSIFICATION_TYPE":"U","NORAD_CAT_ID":51634,"ELEMENT_SET_NO":999,"REV_AT_EPOCH":16695,"BSTAR":-0.0019299,"MEAN_MOTION_DOT":-6.61e-6,"MEAN_MOTION_DDOT":0},{"OBJECT_NAME":"ONEWEB-0439","OBJECT_ID":"2022-012P","EPOCH":"2025-07-28T04:44:18.159360","MEAN_MOTION":13.10374276,"ECCENTRICITY":0.0001906,"INCLINATION":87.8808,"RA_OF_ASC_NODE":100.8956,"ARG_OF_PERICENTER":77.575,"MEAN_ANOMALY":282.559,"EPHEMERIS_TYPE":0,"CLASSIFICATION_TYPE":"U","NORAD_CAT_ID":51635,"ELEMENT_SET_NO":999,"REV_AT_EPOCH":16689,"BSTAR":-0.0016127,"MEAN_MOTION_DOT":-5.5e-6,"MEAN_MOTION_DDOT":0},{"OBJECT_NAME":"ONEWEB-0442","OBJECT_ID":"2022-012Q","EPOCH":"2025-07-28T13:33:07.249536","MEAN_MOTION":13.17649087,"ECCENTRICITY":0.00013,"INCLINATION":87.9036,"RA_OF_ASC_NODE":70.306,"ARG_OF_PERICENTER":99.4477,"MEAN_ANOMALY":260.6802,"EPHEMERIS_TYPE":0,"CLASSIFICATION_TYPE":"U","NORAD_CAT_ID":51636,"ELEMENT_SET_NO":999,"REV_AT_EPOCH":17105,"BSTAR":-0.00017961,"MEAN_MOTION_DOT":-5.7e-7,"MEAN_MOTION_DDOT":0},{"OBJECT_NAME":"ONEWEB-0443","OBJECT_ID":"2022-012R","EPOCH":"2025-07-28T14:01:03.574560","MEAN_MOTION":13.17649734,"ECCENTRICITY":0.0001914,"INCLINATION":87.903,"RA_OF_ASC_NODE":70.3118,"ARG_OF_PERICENTER":92.914,"MEAN_ANOMALY":267.221,"EPHEMERIS_TYPE":0,"CLASSIFICATION_TYPE":"U","NORAD_CAT_ID":51637,"ELEMENT_SET_NO":999,"REV_AT_EPOCH":17110,"BSTAR":-5.8872e-5,"MEAN_MOTION_DOT":-1.0e-7,"MEAN_MOTION_DDOT":0},{"OBJECT_NAME":"ONEWEB-0444","OBJECT_ID":"2022-012S","EPOCH":"2025-07-28T11:49:47.023104","MEAN_MOTION":13.10371888,"ECCENTRICITY":0.0001989,"INCLINATION":87.8804,"RA_OF_ASC_NODE":100.838,"ARG_OF_PERICENTER":78.766,"MEAN_ANOMALY":281.3691,"EPHEMERIS_TYPE":0,"CLASSIFICATION_TYPE":"U","NORAD_CAT_ID":51638,"ELEMENT_SET_NO":999,"REV_AT_EPOCH":16694,"BSTAR":-0.0016349,"MEAN_MOTION_DOT":-5.58e-6,"MEAN_MOTION_DDOT":0},{"OBJECT_NAME":"ONEWEB-0445","OBJECT_ID":"2022-012T","EPOCH":"2025-07-28T17:50:42.716544","MEAN_MOTION":13.10375557,"ECCENTRICITY":0.0001639,"INCLINATION":87.8802,"RA_OF_ASC_NODE":100.741,"ARG_OF_PERICENTER":75.5164,"MEAN_ANOMALY":284.6145,"EPHEMERIS_TYPE":0,"CLASSIFICATION_TYPE":"U","NORAD_CAT_ID":51639,"ELEMENT_SET_NO":999,"REV_AT_EPOCH":16826,"BSTAR":-0.00068835,"MEAN_MOTION_DOT":-2.28e-6,"MEAN_MOTION_DDOT":0}]
